[{"OBJECT_NAME":"FLOCK 4G-17","OBJECT_ID":"2025-009CA","EPOCH":"2026-03-09T22:51:51.984864","MEAN_MOTION":15.27385439,"ECCENTRICITY":0.00036407,"INCLINATION":97.3966,"RA_OF_ASC_NODE":151.0229,"ARG_OF_PERICENTER":339.6132,"MEAN_ANOMALY":20.4962,"EPHEMERIS_TYPE":0,"CLASSIFICATION_TYPE":"U","NORAD_CAT_ID":62681,"ELEMENT_SET_NO":999,"REV_AT_EPOCH":12139,"BSTAR":0.00053710713,"MEAN_MOTION_DOT":0.00014342,"MEAN_MOTION_DDOT":0},{"OBJECT_NAME":"STARLINK-35952","OBJECT_ID":"2025-265E","EPOCH":"2026-03-09T13:47:57.336288","MEAN_MOTION":15.27588666,"ECCENTRICITY":6.41e-5,"INCLINATION":43.0004,"RA_OF_ASC_NODE":278.7826,"ARG_OF_PERICENTER":301.9847,"MEAN_ANOMALY":58.0942,"EPHEMERIS_TYPE":0,"CLASSIFICATION_TYPE":"U","NORAD_CAT_ID":66520,"ELEMENT_SET_NO":999,"REV_AT_EPOCH":1709,"BSTAR":0.0010985,"MEAN_MOTION_DOT":0.00030098,"MEAN_MOTION_DDOT":0}]
